YAM-7                   
1 60504U 24149AN  26068.71799904  .00009009  00000+0  30984-3 0  9997
2 60504  97.3828 149.4631 0001973 296.5121  63.5918 15.30304554 86835
STARLINK-35803          
1 66568U 25268M   26068.09958189  .00042377  00000+0  15410-2 0  9990
2 66568  43.0033 350.0373 0001878 251.0604 109.0044 15.27571654 17873
